SL-3 R/B                
1 19046U 88032B   26096.24900134  .00006094  00000+0  28152-3 0  9996
2 19046  97.5228  79.4153 0027162 135.1263 225.2174 15.20236193 56290
SL-16 R/B               
1 19120U 88039B   26096.10839013 -.00000053  00000+0 -22268-5 0  9993
2 19120  71.0174  10.5710 0023895 295.2186  64.6462 14.19620729962274
COSMOS 1953             
1 19210U 88050A   26096.11683087  .00009112  00000+0  32201-3 0  9994
2 19210  82.5054 130.6512 0011692  36.8724 323.3317 15.28980001 41973
SL-8 R/B                
1 19257U 88053B   26096.12295293  .00000282  00000+0  99834-4 0  9992
2 19257  74.0471  61.8938 0021325 237.4166 206.1153 14.38934820980542
COSMOS 1975             
1 19573U 88093A   26095.96286285  .00006763  00000+0  24232-3 0  9998
2 19573  82.5164  90.2917 0013311  78.0039 282.2692 15.28472328 23577
SL-14 R/B               
1 19574U 88093B   26096.22748398  .00000659  00000+0  73055-4 0  9993
2 19574  82.5346  16.1990 0019461 310.0474 210.3994 14.85691312  5106
SL-16 R/B               
1 19650U 88102B   26096.24059356  .00000302  00000+0  17666-3 0  9990
2 19650  70.9973  93.5249 0015494 321.5273  38.4745 14.16156543930791
INTERCOSMOS 24          
1 20261U 89080A   26095.96869371  .00000430  00000+0  12584-3 0  9996
2 20261  82.6016  86.6348 1187037 229.4518 119.7201 12.59591849670231
SL-14 R/B               
1 20262U 89080C   26096.24174633  .00000413  00000+0  11494-3 0  9999
2 20262  82.5942 155.5066 1230924 121.8052 250.8893 12.50520106663598
DELTA 1 R/B             
1 20323U 89089B   26096.27984486  .00000424  00000+0  11330-3 0  9995
2 20323  97.0683 299.3255 0070001  36.4103 324.1827 14.50687581899733
ARIANE 40 R/B           
1 20443U 90005H   26096.12336413  .00000365  00000+0  12959-3 0  9995
2 20443  98.3027 155.9596 0011307 119.8726 240.3588 14.39890180896758
DELTA 2 R/B(1)          
1 20453U 90008B   26096.06040559  .00081220  00000+0  83857-3 0  9999
2 20453  35.6038 354.7319 0076157 156.5904 203.8328 15.59902314930400
COSMOS 2058             
1 20465U 90010A   26096.05640274  .00005421  00000+0  31747-3 0  9994
2 20465  82.4729  20.4647 0008243 232.7172 127.3307 15.11604206946373
SL-14 R/B               
1 20466U 90010B   26095.86767781  .00000696  00000+0  81305-4 0  9991
2 20466  82.5009 241.8534 0019145 206.5314 153.4923 14.83597812932517
SL-14 R/B               
1 20511U 90018B   26095.70902316  .00000635  00000+0  76594-4 0  9995
2 20511  82.5244 197.8419 0016308   8.3149 351.8332 14.82173741926581
HST                     
1 20580U 90037B   26096.01760897  .00009415  00000+0  30752-3 0  9993
2 20580  28.4724 213.5163 0002291  74.0857 285.9991 15.29950026777508
