[ {"OBJECT_NAME": "SL-3 R/B", "OBJECT_ID": "1988-032B", "EPOCH": "2026-04-06T05:58:33.715776", "MEAN_MOTION": 15.20236193, "ECCENTRICITY": 0.00271629, "INCLINATION": 97.5228, "RA_OF_ASC_NODE": 79.4153, "ARG_OF_PERICENTER": 135.1263, "MEAN_ANOMALY": 225.2174, "EPHEMERIS_TYPE": 0, "CLASSIFICATION_TYPE": "U", "NORAD_CAT_ID": 19046, "ELEMENT_SET_NO": 999, "REV_AT_EPOCH": 5629, "BSTAR": 0.00028151572, "MEAN_MOTION_DOT": 6.094e-05, "MEAN_MOTION_DDOT": 0}, {"OBJECT_NAME": "SL-16 R/B", "OBJECT_ID": "1988-039B", "EPOCH": "2026-04-06T02:36:04.907232", "MEAN_MOTION": 14.19620729, "ECCENTRICITY": 0.00238957, "INCLINATION": 71.0174, "RA_OF_ASC_NODE": 10.571, "ARG_OF_PERICENTER": 295.2186, "MEAN_ANOMALY": 64.6462, "EPHEMERIS_TYPE": 0, "CLASSIFICATION_TYPE": "U", "NORAD_CAT_ID": 19120, "ELEMENT_SET_NO": 999, "REV_AT_EPOCH": 96227, "BSTAR": -2.226846e-06, "MEAN_MOTION_DOT": -5.3e-07, "MEAN_MOTION_DDOT": 0}, {"OBJECT_NAME": "COSMOS 1953", "OBJECT_ID": "1988-050A", "EPOCH": "2026-04-06T02:48:14.187168", "MEAN_MOTION": 15.28980001, "ECCENTRICITY": 0.00116924, "INCLINATION": 82.5054, "RA_OF_ASC_NODE": 130.6512, "ARG_OF_PERICENTER": 36.8724, "MEAN_ANOMALY": 323.3317, "EPHEMERIS_TYPE": 0, "CLASSIFICATION_TYPE": "U", "NORAD_CAT_ID": 19210, "ELEMENT_SET_NO": 999, "REV_AT_EPOCH": 4197, "BSTAR": 0.00032201222, "MEAN_MOTION_DOT": 9.112e-05, "MEAN_MOTION_DDOT": 0}, {"OBJECT_NAME": "SL-8 R/B", "OBJECT_ID": "1988-053B", "EPOCH": "2026-04-06T02:57:03.133152", "MEAN_MOTION": 14.3893482, "ECCENTRICITY": 0.00213259, "INCLINATION": 74.0471, "RA_OF_ASC_NODE": 61.8938, "ARG_OF_PERICENTER": 237.4166, "MEAN_ANOMALY": 206.1153, "EPHEMERIS_TYPE": 0, "CLASSIFICATION_TYPE": "U", "NORAD_CAT_ID": 19257, "ELEMENT_SET_NO": 999, "REV_AT_EPOCH": 98054, "BSTAR": 9.9833633e-05, "MEAN_MOTION_DOT": 2.82e-06, "MEAN_MOTION_DDOT": 0}, {"OBJECT_NAME": "COSMOS 1975", "OBJECT_ID": "1988-093A", "EPOCH": "2026-04-05T23:06:31.350240", "MEAN_MOTION": 15.28472328, "ECCENTRICITY": 0.00133114, "INCLINATION": 82.5164, "RA_OF_ASC_NODE": 90.2917, "ARG_OF_PERICENTER": 78.0039, "MEAN_ANOMALY": 282.2692, "EPHEMERIS_TYPE": 0, "CLASSIFICATION_TYPE": "U", "NORAD_CAT_ID": 19573, "ELEMENT_SET_NO": 999, "REV_AT_EPOCH": 2357, "BSTAR": 0.00024232447, "MEAN_MOTION_DOT": 6.763e-05, "MEAN_MOTION_DDOT": 0}, {"OBJECT_NAME": "SL-14 R/B", "OBJECT_ID": "1988-093B", "EPOCH": "2026-04-06T05:27:34.615872", "MEAN_MOTION": 14.85691312, "ECCENTRICITY": 0.00194612, "INCLINATION": 82.5346, "RA_OF_ASC_NODE": 16.199, "ARG_OF_PERICENTER": 310.0474, "MEAN_ANOMALY": 210.3994, "EPHEMERIS_TYPE": 0, "CLASSIFICATION_TYPE": "U", "NORAD_CAT_ID": 19574, "ELEMENT_SET_NO": 999, "REV_AT_EPOCH": 510, "BSTAR": 7.3054672e-05, "MEAN_MOTION_DOT": 6.59e-06, "MEAN_MOTION_DDOT": 0}, {"OBJECT_NAME": "SL-16 R/B", "OBJECT_ID": "1988-102B", "EPOCH": "2026-04-06T05:46:27.283584", "MEAN_MOTION": 14.16156543, "ECCENTRICITY": 0.00154943, "INCLINATION": 70.9973, "RA_OF_ASC_NODE": 93.5249, "ARG_OF_PERICENTER": 321.5273, "MEAN_ANOMALY": 38.4745, "EPHEMERIS_TYPE": 0, "CLASSIFICATION_TYPE": "U", "NORAD_CAT_ID": 19650, "ELEMENT_SET_NO": 999, "REV_AT_EPOCH": 93079, "BSTAR": 0.00017666001, "MEAN_MOTION_DOT": 3.02e-06, "MEAN_MOTION_DDOT": 0}, {"OBJECT_NAME": "INTERCOSMOS 24", "OBJECT_ID": "1989-080A", "EPOCH": "2026-04-05T23:14:55.136544", "MEAN_MOTION": 12.59591849, "ECCENTRICITY": 0.11870372, "INCLINATION": 82.6016, "RA_OF_ASC_NODE": 86.6348, "ARG_OF_PERICENTER": 229.4518, "MEAN_ANOMALY": 119.7201, "EPHEMERIS_TYPE": 0, "CLASSIFICATION_TYPE": "U", "NORAD_CAT_ID": 20261, "ELEMENT_SET_NO": 999, "REV_AT_EPOCH": 67023, "BSTAR": 0.00012584262, "MEAN_MOTION_DOT": 4.3e-06, "MEAN_MOTION_DDOT": 0}, {"OBJECT_NAME": "SL-14 R/B", "OBJECT_ID": "1989-080C", "EPOCH": "2026-04-06T05:48:06.882912", "MEAN_MOTION": 12.50520106, "ECCENTRICITY": 0.12309245, "INCLINATION": 82.5942, "RA_OF_ASC_NODE": 155.5066, "ARG_OF_PERICENTER": 121.8052, "MEAN_ANOMALY": 250.8893, "EPHEMERIS_TYPE": 0, "CLASSIFICATION_TYPE": "U", "NORAD_CAT_ID": 20262, "ELEMENT_SET_NO": 999, "REV_AT_EPOCH": 66359, "BSTAR": 0.00011493763, "MEAN_MOTION_DOT": 4.13e-06, "MEAN_MOTION_DDOT": 0}, {"OBJECT_NAME": "DELTA 1 R/B", "OBJECT_ID": "1989-089B", "EPOCH": "2026-04-06T06:42:58.595904", "MEAN_MOTION": 14.50687581, "ECCENTRICITY": 0.00700011, "INCLINATION": 97.0683, "RA_OF_ASC_NODE": 299.3255, "ARG_OF_PERICENTER": 36.4103, "MEAN_ANOMALY": 324.1827, "EPHEMERIS_TYPE": 0, "CLASSIFICATION_TYPE": "U", "NORAD_CAT_ID": 20323, "ELEMENT_SET_NO": 999, "REV_AT_EPOCH": 89973, "BSTAR": 0.00011330374, "MEAN_MOTION_DOT": 4.24e-06, "MEAN_MOTION_DDOT": 0}, {"OBJECT_NAME": "ARIANE 40 R/B", "OBJECT_ID": "1990-005H", "EPOCH": "2026-04-06T02:57:38.660832", "MEAN_MOTION": 14.3989018, "ECCENTRICITY": 0.00113076, "INCLINATION": 98.3027, "RA_OF_ASC_NODE": 155.9596, "ARG_OF_PERICENTER": 119.8726, "MEAN_ANOMALY": 240.3588, "EPHEMERIS_TYPE": 0, "CLASSIFICATION_TYPE": "U", "NORAD_CAT_ID": 20443, "ELEMENT_SET_NO": 999, "REV_AT_EPOCH": 89675, "BSTAR": 0.0001295874, "MEAN_MOTION_DOT": 3.65e-06, "MEAN_MOTION_DDOT": 0}, {"OBJECT_NAME": "DELTA 2 R/B(1)", "OBJECT_ID": "1990-008B", "EPOCH": "2026-04-06T01:26:59.042976", "MEAN_MOTION": 15.59902314, "ECCENTRICITY": 0.00761579, "INCLINATION": 35.6038, "RA_OF_ASC_NODE": 354.7319, "ARG_OF_PERICENTER": 156.5904, "MEAN_ANOMALY": 203.8328, "EPHEMERIS_TYPE": 0, "CLASSIFICATION_TYPE": "U", "NORAD_CAT_ID": 20453, "ELEMENT_SET_NO": 999, "REV_AT_EPOCH": 93040, "BSTAR": 0.00083856712, "MEAN_MOTION_DOT": 0.0008122, "MEAN_MOTION_DDOT": 0}, {"OBJECT_NAME": "COSMOS 2058", "OBJECT_ID": "1990-010A", "EPOCH": "2026-04-06T01:21:13.196736", "MEAN_MOTION": 15.11604206, "ECCENTRICITY": 0.00082439, "INCLINATION": 82.4729, "RA_OF_ASC_NODE": 20.4647, "ARG_OF_PERICENTER": 232.7172, "MEAN_ANOMALY": 127.3307, "EPHEMERIS_TYPE": 0, "CLASSIFICATION_TYPE": "U", "NORAD_CAT_ID": 20465, "ELEMENT_SET_NO": 999, "REV_AT_EPOCH": 94637, "BSTAR": 0.0003174742, "MEAN_MOTION_DOT": 5.421e-05, "MEAN_MOTION_DDOT": 0}, {"OBJECT_NAME": "SL-14 R/B", "OBJECT_ID": "1990-010B", "EPOCH": "2026-04-05T20:49:27.362784", "MEAN_MOTION": 14.83597812, "ECCENTRICITY": 0.0019145, "INCLINATION": 82.5009, "RA_OF_ASC_NODE": 241.8534, "ARG_OF_PERICENTER": 206.5314, "MEAN_ANOMALY": 153.4923, "EPHEMERIS_TYPE": 0, "CLASSIFICATION_TYPE": "U", "NORAD_CAT_ID": 20466, "ELEMENT_SET_NO": 999, "REV_AT_EPOCH": 93251, "BSTAR": 8.1305e-05, "MEAN_MOTION_DOT": 6.96e-06, "MEAN_MOTION_DDOT": 0}, {"OBJECT_NAME": "SL-14 R/B", "OBJECT_ID": "1990-018B", "EPOCH": "2026-04-05T17:00:59.601024", "MEAN_MOTION": 14.82173741, "ECCENTRICITY": 0.00163087, "INCLINATION": 82.5244, "RA_OF_ASC_NODE": 197.8419, "ARG_OF_PERICENTER": 8.3149, "MEAN_ANOMALY": 351.8332, "EPHEMERIS_TYPE": 0, "CLASSIFICATION_TYPE": "U", "NORAD_CAT_ID": 20511, "ELEMENT_SET_NO": 999, "REV_AT_EPOCH": 92658, "BSTAR": 7.6594432e-05, "MEAN_MOTION_DOT": 6.35e-06, "MEAN_MOTION_DDOT": 0}, {"OBJECT_NAME": "HST", "OBJECT_ID": "1990-037B", "EPOCH": "2026-04-06T00:25:21.415008", "MEAN_MOTION": 15.29950026, "ECCENTRICITY": 0.0002291, "INCLINATION": 28.4724, "RA_OF_ASC_NODE": 213.5163, "ARG_OF_PERICENTER": 74.0857, "MEAN_ANOMALY": 285.9991, "EPHEMERIS_TYPE": 0, "CLASSIFICATION_TYPE": "U", "NORAD_CAT_ID": 20580, "ELEMENT_SET_NO": 999, "REV_AT_EPOCH": 77750, "BSTAR": 0.00030751835, "MEAN_MOTION_DOT": 9.415e-05, "MEAN_MOTION_DDOT": 0}]